[{"OBJECT_NAME":"ONEWEB-0058","OBJECT_ID":"2020-008AG","EPOCH":"2025-10-22T03:04:18.609888","MEAN_MOTION":13.10372276,"ECCENTRICITY":0.0001772,"INCLINATION":87.8759,"RA_OF_ASC_NODE":83.7438,"ARG_OF_PERICENTER":103.3238,"MEAN_ANOMALY":256.8087,"EPHEMERIS_TYPE":0,"CLASSIFICATION_TYPE":"U","NORAD_CAT_ID":45161,"ELEMENT_SET_NO":999,"REV_AT_EPOCH":27724,"BSTAR":-0.0015019,"MEAN_MOTION_DOT":-5.12e-6,"MEAN_MOTION_DDOT":0},{"OBJECT_NAME":"ONEWEB-0059","OBJECT_ID":"2020-008AH","EPOCH":"2025-10-22T02:59:21.782688","MEAN_MOTION":13.10376871,"ECCENTRICITY":0.0001611,"INCLINATION":87.8757,"RA_OF_ASC_NODE":83.7448,"ARG_OF_PERICENTER":98.1189,"MEAN_ANOMALY":262.0121,"EPHEMERIS_TYPE":0,"CLASSIFICATION_TYPE":"U","NORAD_CAT_ID":45162,"ELEMENT_SET_NO":999,"REV_AT_EPOCH":27714,"BSTAR":-0.0011135,"MEAN_MOTION_DOT":-3.76e-6,"MEAN_MOTION_DDOT":0},{"OBJECT_NAME":"ONEWEB-0062","OBJECT_ID":"2020-008AJ","EPOCH":"2025-10-22T03:36:21.000384","MEAN_MOTION":13.1037334,"ECCENTRICITY":0.0001916,"INCLINATION":87.8765,"RA_OF_ASC_NODE":83.7167,"ARG_OF_PERICENTER":100.7163,"MEAN_ANOMALY":259.418,"EPHEMERIS_TYPE":0,"CLASSIFICATION_TYPE":"U","NORAD_CAT_ID":45163,"ELEMENT_SET_NO":999,"REV_AT_EPOCH":27701,"BSTAR":-0.00092687,"MEAN_MOTION_DOT":-3.11e-6,"MEAN_MOTION_DDOT":0},{"OBJECT_NAME":"ONEWEB-0065","OBJECT_ID":"2020-008AK","EPOCH":"2025-10-22T03:07:39.776736","MEAN_MOTION":13.10369924,"ECCENTRICITY":0.000154,"INCLINATION":87.8759,"RA_OF_ASC_NODE":83.7469,"ARG_OF_PERICENTER":80.8266,"MEAN_ANOMALY":279.3036,"EPHEMERIS_TYPE":0,"CLASSIFICATION_TYPE":"U","NORAD_CAT_ID":45164,"ELEMENT_SET_NO":999,"REV_AT_EPOCH":27670,"BSTAR":-0.0016194,"MEAN_MOTION_DOT":-5.53e-6,"MEAN_MOTION_DDOT":0},{"OBJECT_NAME":"ONEWEB-0066","OBJECT_ID":"2020-020A","EPOCH":"2025-10-22T02:25:05.468736","MEAN_MOTION":13.11416798,"ECCENTRICITY":0.000136,"INCLINATION":87.8837,"RA_OF_ASC_NODE":68.4747,"ARG_OF_PERICENTER":102.7686,"MEAN_ANOMALY":257.3594,"EPHEMERIS_TYPE":0,"CLASSIFICATION_TYPE":"U","NORAD_CAT_ID":45424,"ELEMENT_SET_NO":999,"REV_AT_EPOCH":27147,"BSTAR":-0.0019561,"MEAN_MOTION_DOT":-6.81e-6,"MEAN_MOTION_DDOT":0},{"OBJECT_NAME":"ONEWEB-0067","OBJECT_ID":"2020-020B","EPOCH":"2025-10-22T03:19:02.251200","MEAN_MOTION":13.11420279,"ECCENTRICITY":0.0001445,"INCLINATION":87.8833,"RA_OF_ASC_NODE":68.3705,"ARG_OF_PERICENTER":96.2116,"MEAN_ANOMALY":263.9176,"EPHEMERIS_TYPE":0,"CLASSIFICATION_TYPE":"U","NORAD_CAT_ID":45425,"ELEMENT_SET_NO":999,"REV_AT_EPOCH":27153,"BSTAR":0.0015017,"MEAN_MOTION_DOT":5.45e-6,"MEAN_MOTION_DDOT":0},{"OBJECT_NAME":"ONEWEB-0080","OBJECT_ID":"2020-020C","EPOCH":"2025-10-22T01:42:23.319072","MEAN_MOTION":13.1141361,"ECCENTRICITY":0.0001733,"INCLINATION":87.8834,"RA_OF_ASC_NODE":68.4823,"ARG_OF_PERICENTER":109.5562,"MEAN_ANOMALY":250.5753,"EPHEMERIS_TYPE":0,"CLASSIFICATION_TYPE":"U","NORAD_CAT_ID":45426,"ELEMENT_SET_NO":999,"REV_AT_EPOCH":27149,"BSTAR":0.00056095,"MEAN_MOTION_DOT":2.12e-6,"MEAN_MOTION_DDOT":0},{"OBJECT_NAME":"ONEWEB-0090","OBJECT_ID":"2020-020D","EPOCH":"2025-10-22T02:10:27.015744","MEAN_MOTION":13.11417167,"ECCENTRICITY":0.0001632,"INCLINATION":87.8835,"RA_OF_ASC_NODE":68.479,"ARG_OF_PERICENTER":98.5421,"MEAN_ANOMALY":261.5892,"EPHEMERIS_TYPE":0,"CLASSIFICATION_TYPE":"U","NORAD_CAT_ID":45427,"ELEMENT_SET_NO":999,"REV_AT_EPOCH":27146,"BSTAR":-0.0013516,"MEAN_MOTION_DOT":-4.66e-6,"MEAN_MOTION_DDOT":0},{"OBJECT_NAME":"ONEWEB-0061","OBJECT_ID":"2020-020E","EPOCH":"2025-10-22T02:56:39.219360","MEAN_MOTION":13.11416704,"ECCENTRICITY":0.0001578,"INCLINATION":87.8842,"RA_OF_ASC_NODE":68.4526,"ARG_OF_PERICENTER":98.6998,"MEAN_ANOMALY":261.4309,"EPHEMERIS_TYPE":0,"CLASSIFICATION_TYPE":"U","NORAD_CAT_ID":45428,"ELEMENT_SET_NO":999,"REV_AT_EPOCH":27142,"BSTAR":0.0010717,"MEAN_MOTION_DOT":3.93e-6,"MEAN_MOTION_DDOT":0},{"OBJECT_NAME":"ONEWEB-0081","OBJECT_ID":"2020-020F","EPOCH":"2025-10-21T21:00:22.425120","MEAN_MOTION":13.11419729,"ECCENTRICITY":0.0001353,"INCLINATION":87.8832,"RA_OF_ASC_NODE":68.5199,"ARG_OF_PERICENTER":101.174,"MEAN_ANOMALY":258.9541,"EPHEMERIS_TYPE":0,"CLASSIFICATION_TYPE":"U","NORAD_CAT_ID":45429,"ELEMENT_SET_NO":999,"REV_AT_EPOCH":27150,"BSTAR":-0.00097845,"MEAN_MOTION_DOT":-3.34e-6,"MEAN_MOTION_DDOT":0},{"OBJECT_NAME":"ONEWEB-0069","OBJECT_ID":"2020-020G","EPOCH":"2025-10-22T02:14:07.060992","MEAN_MOTION":13.1141717,"ECCENTRICITY":0.0001467,"INCLINATION":87.8834,"RA_OF_ASC_NODE":68.4727,"ARG_OF_PERICENTER":96.6165,"MEAN_ANOMALY":263.513,"EPHEMERIS_TYPE":0,"CLASSIFICATION_TYPE":"U","NORAD_CAT_ID":45430,"ELEMENT_SET_NO":999,"REV_AT_EPOCH":27146,"BSTAR":-0.0014121,"MEAN_MOTION_DOT":-4.88e-6,"MEAN_MOTION_DDOT":0},{"OBJECT_NAME":"ONEWEB-0031","OBJECT_ID":"2020-020H","EPOCH":"2025-10-22T01:33:51.255648","MEAN_MOTION":13.11415216,"ECCENTRICITY":0.0001789,"INCLINATION":87.8828,"RA_OF_ASC_NODE":68.5049,"ARG_OF_PERICENTER":100.6092,"MEAN_ANOMALY":259.5238,"EPHEMERIS_TYPE":0,"CLASSIFICATION_TYPE":"U","NORAD_CAT_ID":45431,"ELEMENT_SET_NO":999,"REV_AT_EPOCH":27144,"BSTAR":0.0012526,"MEAN_MOTION_DOT":4.57e-6,"MEAN_MOTION_DDOT":0},{"OBJECT_NAME":"ONEWEB-0027","OBJECT_ID":"2020-020J","EPOCH":"2025-10-22T02:15:31.219776","MEAN_MOTION":13.17649447,"ECCENTRICITY":0.0002061,"INCLINATION":87.9117,"RA_OF_ASC_NODE":53.1834,"ARG_OF_PERICENTER":95.4362,"MEAN_ANOMALY":264.7004,"EPHEMERIS_TYPE":0,"CLASSIFICATION_TYPE":"U","NORAD_CAT_ID":45432,"ELEMENT_SET_NO":999,"REV_AT_EPOCH":27500,"BSTAR":0.00026576,"MEAN_MOTION_DOT":1.16e-6,"MEAN_MOTION_DDOT":0},{"OBJECT_NAME":"ONEWEB-0064","OBJECT_ID":"2020-020K","EPOCH":"2025-10-22T03:21:17.284032","MEAN_MOTION":13.11415515,"ECCENTRICITY":0.0001783,"INCLINATION":87.8826,"RA_OF_ASC_NODE":68.4805,"ARG_OF_PERICENTER":97.4855,"MEAN_ANOMALY":262.6475,"EPHEMERIS_TYPE":0,"CLASSIFICATION_TYPE":"U","NORAD_CAT_ID":45433,"ELEMENT_SET_NO":999,"REV_AT_EPOCH":27148,"BSTAR":0.0012447,"MEAN_MOTION_DOT":4.54e-6,"MEAN_MOTION_DDOT":0},{"OBJECT_NAME":"ONEWEB-0018","OBJECT_ID":"2020-020L","EPOCH":"2025-10-22T02:17:47.198688","MEAN_MOTION":13.11416383,"ECCENTRICITY":0.0001594,"INCLINATION":87.8834,"RA_OF_ASC_NODE":68.4756,"ARG_OF_PERICENTER":101.3302,"MEAN_ANOMALY":258.8005,"EPHEMERIS_TYPE":0,"CLASSIFICATION_TYPE":"U","NORAD_CAT_ID":45434,"ELEMENT_SET_NO":999,"REV_AT_EPOCH":27142,"BSTAR":-0.0015549,"MEAN_MOTION_DOT":-5.38e-6,"MEAN_MOTION_DDOT":0},{"OBJECT_NAME":"ONEWEB-0083","OBJECT_ID":"2020-020M","EPOCH":"2025-10-21T22:24:37.476576","MEAN_MOTION":13.11415515,"ECCENTRICITY":0.0001646,"INCLINATION":87.8832,"RA_OF_ASC_NODE":68.4972,"ARG_OF_PERICENTER":99.7192,"MEAN_ANOMALY":260.4122,"EPHEMERIS_TYPE":0,"CLASSIFICATION_TYPE":"U","NORAD_CAT_ID":45435,"ELEMENT_SET_NO":999,"REV_AT_EPOCH":27144,"BSTAR":-0.0012261,"MEAN_MOTION_DOT":-4.22e-6,"MEAN_MOTION_DDOT":0},{"OBJECT_NAME":"ONEWEB-0095","OBJECT_ID":"2020-020N","EPOCH":"2025-10-22T01:51:07.767072","MEAN_MOTION":13.1141552,"ECCENTRICITY":0.0001936,"INCLINATION":87.8821,"RA_OF_ASC_NODE":68.4843,"ARG_OF_PERICENTER":75.3392,"MEAN_ANOMALY":284.795,"EPHEMERIS_TYPE":0,"CLASSIFICATION_TYPE":"U","NORAD_CAT_ID":45436,"ELEMENT_SET_NO":999,"REV_AT_EPOCH":27146,"BSTAR":-0.00012848,"MEAN_MOTION_DOT":-3.3e-7,"MEAN_MOTION_DDOT":0}]
