ONEWEB-0058             
1 45161U 20008AG  25295.12799317 -.00000512  00000+0 -15019-2 0  9996
2 45161  87.8759  83.7438 0001772 103.3238 256.8087 13.10372276277243
ONEWEB-0059             
1 45162U 20008AH  25295.12455767 -.00000376  00000+0 -11135-2 0  9998
2 45162  87.8757  83.7448 0001611  98.1189 262.0121 13.10376871277143
ONEWEB-0062             
1 45163U 20008AJ  25295.15024306 -.00000311  00000+0 -92687-3 0  9994
2 45163  87.8765  83.7167 0001916 100.7163 259.4180 13.10373340277010
ONEWEB-0065             
1 45164U 20008AK  25295.13032149 -.00000553  00000+0 -16194-2 0  9993
2 45164  87.8759  83.7469 0001540  80.8266 279.3036 13.10369924276703
ONEWEB-0066             
1 45424U 20020A   25295.10075774 -.00000681  00000+0 -19561-2 0  9997
2 45424  87.8837  68.4747 0001360 102.7686 257.3594 13.11416798271475
ONEWEB-0067             
1 45425U 20020B   25295.13822050  .00000545  00000+0  15017-2 0  9997
2 45425  87.8833  68.3705 0001445  96.2116 263.9176 13.11420279271539
ONEWEB-0080             
1 45426U 20020C   25295.07110323  .00000212  00000+0  56095-3 0  9997
2 45426  87.8834  68.4823 0001733 109.5562 250.5753 13.11413610271495
ONEWEB-0090             
1 45427U 20020D   25295.09059046 -.00000466  00000+0 -13516-2 0  9997
2 45427  87.8835  68.4790 0001632  98.5421 261.5892 13.11417167271463
ONEWEB-0061             
1 45428U 20020E   25295.12267615  .00000393  00000+0  10717-2 0  9992
2 45428  87.8842  68.4526 0001578  98.6998 261.4309 13.11416704271422
ONEWEB-0081             
1 45429U 20020F   25294.87525955 -.00000334  00000+0 -97845-3 0  9993
2 45429  87.8832  68.5199 0001353 101.1740 258.9541 13.11419729271503
ONEWEB-0069             
1 45430U 20020G   25295.09313728 -.00000488  00000+0 -14121-2 0  9998
2 45430  87.8834  68.4727 0001467  96.6165 263.5130 13.11417170271467
ONEWEB-0031             
1 45431U 20020H   25295.06517657  .00000457  00000+0  12526-2 0  9994
2 45431  87.8828  68.5049 0001789 100.6092 259.5238 13.11415216271442
ONEWEB-0027             
1 45432U 20020J   25295.09411134  .00000116  00000+0  26576-3 0  9994
2 45432  87.9117  53.1834 0002061  95.4362 264.7004 13.17649447275008
ONEWEB-0064             
1 45433U 20020K   25295.13978338  .00000454  00000+0  12447-2 0  9990
2 45433  87.8826  68.4805 0001783  97.4855 262.6475 13.11415515271489
ONEWEB-0018             
1 45434U 20020L   25295.09568517 -.00000538  00000+0 -15549-2 0  9991
2 45434  87.8834  68.4756 0001594 101.3302 258.8005 13.11416383271420
ONEWEB-0083             
1 45435U 20020M   25294.93376709 -.00000422  00000+0 -12261-2 0  9994
2 45435  87.8832  68.4972 0001646  99.7192 260.4122 13.11415515271441
ONEWEB-0095             
1 45436U 20020N   25295.07717323 -.00000033  00000+0 -12848-3 0  9992
2 45436  87.8821  68.4843 0001936  75.3392 284.7950 13.11415520271467
